{"type": "FeatureCollection", "features": [ {"type": "Feature", "properties": {"norad_id": 37216, "name": "COSMO-SKYMED 4", "group": "resource", "lat": -19.7686224320096, "lon": 166.69426848507106, "alt_km": 627.8938343702976, "timestamp": "2025-12-08T10:52:02.606156+00:00", "meta": {"OBJECT_NAME": "COSMO-SKYMED 4", "OBJECT_ID": "2010-060A", "EPOCH": "2025-12-07T21:59:43.012320", "MEAN_MOTION": 14.8215912, "ECCENTRICITY": 0.00013665, "INCLINATION": 97.8813, "RA_OF_ASC_NODE": 163.3125, "ARG_OF_PERICENTER": 82.9619, "MEAN_ANOMALY": 277.175, "EPHEMERIS_TYPE": 0, "CLASSIFICATION_TYPE": "U", "NORAD_CAT_ID": 37216, "ELEMENT_SET_NO": 999, "REV_AT_EPOCH": 81623, "BSTAR": 0.00012332412, "MEAN_MOTION_DOT": 9.3e-06, "MEAN_MOTION_DDOT": 0}, "tle": {"line1": "1 37216U 10060A   25341.91647005  .00000930  00000+0  12332-3 0  9998", "line2": "2 37216  97.8813 163.3125 0001366  82.9619 277.1750 14.82159120816231"}}, "geometry": {"type": "Point", "coordinates": [166.69426848507106, -19.7686224320096]}}, {"type": "Feature", "properties": {"norad_id": 37387, "name": "RESOURCESAT-2", "group": "resource", "lat": 21.30219021543579, "lon": -130.51806310133117, "alt_km": 820.9760775308741, "timestamp": "2025-12-08T10:52:02.606167+00:00", "meta": {"OBJECT_NAME": "RESOURCESAT-2", "OBJECT_ID": "2011-015A", "EPOCH": "2025-12-07T22:18:04.697856", "MEAN_MOTION": 14.21594207, "ECCENTRICITY": 0.00066407, "INCLINATION": 98.7883, "RA_OF_ASC_NODE": 45.5025, "ARG_OF_PERICENTER": 55.0428, "MEAN_ANOMALY": 305.1372, "EPHEMERIS_TYPE": 0, "CLASSIFICATION_TYPE": "U", "NORAD_CAT_ID": 37387, "ELEMENT_SET_NO": 999, "REV_AT_EPOCH": 75900, "BSTAR": 0.00014472055, "MEAN_MOTION_DOT": 2.73e-06, "MEAN_MOTION_DDOT": 0}, "tle": {"line1": "1 37387U 11015A   25341.92922104  .00000273  00000+0  14472-3 0  9992", "line2": "2 37387  98.7883  45.5025 0006640  55.0428 305.1372 14.21594207759001"}}, "geometry": {"type": "Point", "coordinates": [-130.51806310133117, 21.30219021543579]}}, {"type": "Feature", "properties": {"norad_id": 37781, "name": "HAIYANG-2A", "group": "resource", "lat": 34.363500448272156, "lon": 169.91313821272414, "alt_km": 964.9898034183061, "timestamp": "2025-12-08T10:52:02.606177+00:00", "meta": {"OBJECT_NAME": "HAIYANG-2A", "OBJECT_ID": "2011-043A", "EPOCH": "2025-12-07T23:43:02.716896", "MEAN_MOTION": 13.78834683, "ECCENTRICITY": 0.00016614, "INCLINATION": 99.3378, "RA_OF_ASC_NODE": 342.996, "ARG_OF_PERICENTER": 90.9225, "MEAN_ANOMALY": 269.2117, "EPHEMERIS_TYPE": 0, "CLASSIFICATION_TYPE": "U", "NORAD_CAT_ID": 37781, "ELEMENT_SET_NO": 999, "REV_AT_EPOCH": 72033, "BSTAR": 4.0967851e-05, "MEAN_MOTION_DOT": -2e-08, "MEAN_MOTION_DDOT": 0}, "tle": {"line1": "1 37781U 11043A   25341.98822589 -.00000002  00000+0  40968-4 0  9994", "line2": "2 37781  99.3378 342.9960 0001661  90.9225 269.2117 13.78834683720335"}}, "geometry": {"type": "Point", "coordinates": [169.91313821272414, 34.363500448272156]}}, {"type": "Feature", "properties": {"norad_id": 37791, "name": "RASAT", "group": "resource", "lat": -30.67689406952374, "lon": 76.59959085846936, "alt_km": 678.7475025627791, "timestamp": "2025-12-08T10:52:02.606188+00:00", "meta": {"OBJECT_NAME": "RASAT", "OBJECT_ID": "2011-044D", "EPOCH": "2025-12-07T22:25:48.037728", "MEAN_MOTION": 14.67898745, "ECCENTRICITY": 0.0021926, "INCLINATION": 98.0655, "RA_OF_ASC_NODE": 71.2638, "ARG_OF_PERICENTER": 79.5797, "MEAN_ANOMALY": 32.8685, "EPHEMERIS_TYPE": 0, "CLASSIFICATION_TYPE": "U", "NORAD_CAT_ID": 37791, "ELEMENT_SET_NO": 999, "REV_AT_EPOCH": 76512, "BSTAR": 0.00019612903, "MEAN_MOTION_DOT": 1.076e-05, "MEAN_MOTION_DDOT": 0}, "tle": {"line1": "1 37791U 11044D   25341.93458377  .00001076  00000+0  19613-3 0  9994", "line2": "2 37791  98.0655  71.2638 0021926  79.5797  32.8685 14.67898745765125"}}, "geometry": {"type": "Point", "coordinates": [76.59959085846936, -30.67689406952374]}}, {"type": "Feature", "properties": {"norad_id": 37841, "name": "SRMSAT", "group": "resource", "lat": -7.805699523791013, "lon": -23.9211202292691, "alt_km": 848.9070814945262, "timestamp": "2025-12-08T10:52:02.606225+00:00", "meta": {"OBJECT_NAME": "SRMSAT", "OBJECT_ID": "2011-058D", "EPOCH": "2025-12-07T18:46:13.846944", "MEAN_MOTION": 14.11509005, "ECCENTRICITY": 0.0011708, "INCLINATION": 19.97, "RA_OF_ASC_NODE": 137.9568, "ARG_OF_PERICENTER": 258.3693, "MEAN_ANOMALY": 129.6511, "EPHEMERIS_TYPE": 0, "CLASSIFICATION_TYPE": "U", "NORAD_CAT_ID": 37841, "ELEMENT_SET_NO": 999, "REV_AT_EPOCH": 73074, "BSTAR": 0.00015480785, "MEAN_MOTION_DOT": 5.5e-06, "MEAN_MOTION_DDOT": 0}, "tle": {"line1": "1 37841U 11058D   25341.78210471  .00000550  00000+0  15481-3 0  9994", "line2": "2 37841  19.9700 137.9568 0011708 258.3693 129.6511 14.11509005730745"}}, "geometry": {"type": "Point", "coordinates": [-23.9211202292691, -7.805699523791013]}}, {"type": "Feature", "properties": {"norad_id": 38012, "name": "PLEIADES 1A", "group": "resource", "lat": -81.67115028078923, "lon": 155.90022109778457, "alt_km": 706.1152801485596, "timestamp": "2025-12-08T10:52:02.606239+00:00", "meta": {"OBJECT_NAME": "PLEIADES 1A", "OBJECT_ID": "2011-076F", "EPOCH": "2025-12-07T22:54:35.140032", "MEAN_MOTION": 14.58554092, "ECCENTRICITY": 0.00013309, "INCLINATION": 98.183, "RA_OF_ASC_NODE": 54.797, "ARG_OF_PERICENTER": 78.81, "MEAN_ANOMALY": 95.0833, "EPHEMERIS_TYPE": 0, "CLASSIFICATION_TYPE": "U", "NORAD_CAT_ID": 38012, "ELEMENT_SET_NO": 999, "REV_AT_EPOCH": 74411, "BSTAR": 0.00016433514, "MEAN_MOTION_DOT": 7.18e-06, "MEAN_MOTION_DDOT": 0}, "tle": {"line1": "1 38012U 11076F   25341.95457338  .00000718  00000+0  16434-3 0  9994", "line2": "2 38012  98.1830  54.7970 0001330  78.8100  95.0833 14.58554092744116"}}, "geometry": {"type": "Point", "coordinates": [155.90022109778457, -81.67115028078923]}}, {"type": "Feature", "properties": {"norad_id": 38038, "name": "ZIYUAN 1-02C (ZY 1-02C)", "group": "resource", "lat": 46.402735772207684, "lon": -122.49015745600803, "alt_km": 756.2420953390974, "timestamp": "2025-12-08T10:52:02.606250+00:00", "meta": {"OBJECT_NAME": "ZIYUAN 1-02C (ZY 1-02C)", "OBJECT_ID": "2011-079A", "EPOCH": "2025-12-07T23:21:48.685824", "MEAN_MOTION": 14.38003619, "ECCENTRICITY": 0.00070027, "INCLINATION": 98.4341, "RA_OF_ASC_NODE": 48.075, "ARG_OF_PERICENTER": 151.7314, "MEAN_ANOMALY": 21.1945, "EPHEMERIS_TYPE": 0, "CLASSIFICATION_TYPE": "U", "NORAD_CAT_ID": 38038, "ELEMENT_SET_NO": 999, "REV_AT_EPOCH": 73172, "BSTAR": 0.00028968985, "MEAN_MOTION_DOT": 8.33e-06, "MEAN_MOTION_DDOT": 0}, "tle": {"line1": "1 38038U 11079A   25341.97348016  .00000833  00000+0  28969-3 0  9993", "line2": "2 38038  98.4341  48.0750 0007002 151.7314  21.1945 14.38003619731725"}}, "geometry": {"type": "Point", "coordinates": [-122.49015745600803, 46.402735772207684]}}, {"type": "Feature", "properties": {"norad_id": 38046, "name": "ZIYUAN 3-1 (ZY 3-1)", "group": "resource", "lat": 80.1706973102523, "lon": 2.1197094862200303, "alt_km": 357.57863178815023, "timestamp": "2025-12-08T10:52:02.606262+00:00", "meta": {"OBJECT_NAME": "ZIYUAN 3-1 (ZY 3-1)", "OBJECT_ID": "2012-001A", "EPOCH": "2025-12-07T22:15:29.754144", "MEAN_MOTION": 15.67663122, "ECCENTRICITY": 0.00019474, "INCLINATION": 97.1759, "RA_OF_ASC_NODE": 48.2354, "ARG_OF_PERICENTER": 12.3453, "MEAN_ANOMALY": 347.7856, "EPHEMERIS_TYPE": 0, "CLASSIFICATION_TYPE": "U", "NORAD_CAT_ID": 38046, "ELEMENT_SET_NO": 999, "REV_AT_EPOCH": 77421, "BSTAR": 0.00080288414, "MEAN_MOTION_DOT": 0.00088224, "MEAN_MOTION_DDOT": 0}, "tle": {"line1": "1 38046U 12001A   25341.92742771  .00088224  00000+0  80288-3 0  9991", "line2": "2 38046  97.1759  48.2354 0001947  12.3453 347.7856 15.67663122774216"}}, "geometry": {"type": "Point", "coordinates": [2.1197094862200303, 80.1706973102523]}}, {"type": "Feature", "properties": {"norad_id": 38338, "name": "ARIRANG-3 (KOMPSAT-3)", "group": "resource", "lat": 61.46848677514154, "lon": 132.64749783039923, "alt_km": 683.9730514821686, "timestamp": "2025-12-08T10:52:02.606272+00:00", "meta": {"OBJECT_NAME": "ARIRANG-3 (KOMPSAT-3)", "OBJECT_ID": "2012-025B", "EPOCH": "2025-12-07T22:49:56.764416", "MEAN_MOTION": 14.61702315, "ECCENTRICITY": 0.00057001, "INCLINATION": 98.3317, "RA_OF_ASC_NODE": 296.5048, "ARG_OF_PERICENTER": 354.3163, "MEAN_ANOMALY": 5.7972, "EPHEMERIS_TYPE": 0, "CLASSIFICATION_TYPE": "U", "NORAD_CAT_ID": 38338, "ELEMENT_SET_NO": 999, "REV_AT_EPOCH": 72340, "BSTAR": 0.00021412148, "MEAN_MOTION_DOT": 1.018e-05, "MEAN_MOTION_DDOT": 0}, "tle": {"line1": "1 38338U 12025B   25341.95135144  .00001018  00000+0  21412-3 0  9994", "line2": "2 38338  98.3317 296.5048 0005700 354.3163   5.7972 14.61702315723405"}}, "geometry": {"type": "Point", "coordinates": [132.64749783039923, 61.46848677514154]}}, {"type": "Feature", "properties": {"norad_id": 38709, "name": "EXACTVIEW-1 (ADS-1B)", "group": "resource", "lat": -37.59794015723429, "lon": 97.73375197363531, "alt_km": 809.5610774315228, "timestamp": "2025-12-08T10:52:02.606283+00:00", "meta": {"OBJECT_NAME": "EXACTVIEW-1 (ADS-1B)", "OBJECT_ID": "2012-039C", "EPOCH": "2025-12-07T21:33:48.847392", "MEAN_MOTION": 14.24904758, "ECCENTRICITY": 0.00109233, "INCLINATION": 98.9636, "RA_OF_ASC_NODE": 90.187, "ARG_OF_PERICENTER": 8.1941, "MEAN_ANOMALY": 351.9414, "EPHEMERIS_TYPE": 0, "CLASSIFICATION_TYPE": "U", "NORAD_CAT_ID": 38709, "ELEMENT_SET_NO": 999, "REV_AT_EPOCH": 69546, "BSTAR": 0.00014142046, "MEAN_MOTION_DOT": 2.84e-06, "MEAN_MOTION_DDOT": 0}, "tle": {"line1": "1 38709U 12039C   25341.89848203  .00000284  00000+0  14142-3 0  9997", "line2": "2 38709  98.9636  90.1870 0010923   8.1941 351.9414 14.24904758695464"}}, "geometry": {"type": "Point", "coordinates": [97.73375197363531, -37.59794015723429]}}]}